OBJECT_NAME,OBJECT_ID,EPOCH,MEAN_MOTION,ECCENTRICITY,INCLINATION,RA_OF_ASC_NODE,ARG_OF_PERICENTER,MEAN_ANOMALY,EPHEMERIS_TYPE,CLASSIFICATION_TYPE,NORAD_CAT_ID,ELEMENT_SET_NO,REV_AT_EPOCH,BSTAR,MEAN_MOTION_DOT,MEAN_MOTION_DDOT
FENGYUN 3D,2017-072A,2026-07-02T19:01:33.325248,14.19740968,.0002156,99.0132,158.4976,37.0736,323.0588,0,U,43010,999,44720,-.12096E-3,-.302E-5,0
NOAA 20 (JPSS-1),2017-073A,2026-07-02T18:57:59.226048,14.19514585,.0000882,98.7772,123.1143,132.4848,227.6402,0,U,43013,999,44668,.56951E-4,.76E-6,0
GOES 17,2018-022A,2026-07-02T15:16:05.946816,1.00271770,.0000734,0.9741,85.4682,41.6240,293.1097,0,U,43226,999,3057,0,-.172E-5,0
SENTINEL-3B,2018-039A,2026-07-02T11:28:21.061056,14.26739163,.0000853,98.6244,250.7906,115.3560,244.7708,0,U,43437,999,42630,.76068E-4,.14E-5,0
FENGYUN 2H,2018-050A,2026-07-02T19:52:45.182208,1.00269442,.0001785,3.0698,78.8967,121.3939,98.0538,0,U,43491,999,2959,0,-.119E-5,0
METOP-C,2018-087A,2026-07-02T16:39:24.090048,14.21516385,.0002154,98.6637,243.0137,109.6309,250.5101,0,U,43689,999,39703,.81975E-4,.136E-5,0
GEO-KOMPSAT-2A,2018-100A,2026-07-02T18:18:50.028192,1.00268776,.0002258,0.0452,170.3409,284.1162,229.2952,0,U,43823,999,2778,0,-.333E-5,0
METEOR-M2 2,2019-038A,2026-07-02T18:27:26.063424,14.24369221,.0001409,98.9148,171.2847,25.7364,334.3884,0,U,44387,999,36351,-.71223E-4,-.211E-5,0
ARKTIKA-M 1,2021-016A,2026-06-29T22:50:46.732128,2.00617895,.72928178,63.2520,55.7907,269.9910,14.5481,0,U,47719,999,3904,0,-.281E-5,0
FENGYUN 3E,2021-062A,2026-07-02T18:35:49.793568,14.19905723,.0002665,98.7490,187.0089,60.9337,299.2106,0,U,49008,999,25879,.78678E-4,.123E-5,0
GOES 18,2022-021A,2026-07-02T16:45:10.927296,1.00271499,.0000551,0.0153,195.2020,306.4734,253.3476,0,U,51850,999,674,0,.107E-5,0
NOAA 21 (JPSS-2),2022-150A,2026-07-02T18:03:17.131104,14.19539311,.0002463,98.7060,122.2799,126.6308,233.5095,0,U,54234,999,18875,.49275E-4,.6E-6,0
METEOSAT-12 (MTG-I1),2022-170C,2026-07-02T17:24:08.004096,1.00276285,.0003602,0.7551,25.3200,74.6137,81.6181,0,U,54743,999,1313,0,.4E-7,0
TIANMU-1 03,2023-039A,2026-07-02T18:19:04.705824,15.47729369,.0003621,97.5236,358.3466,59.5335,300.6272,0,U,55973,999,18324,.31575E-3,.16267E-3,0
TIANMU-1 04,2023-039B,2026-07-02T17:55:09.562944,15.48343454,.0004051,97.5174,357.4844,53.8233,306.3392,0,U,55974,999,18325,.30643E-3,.16126E-3,0
TIANMU-1 05,2023-039C,2026-07-02T17:52:28.214400,15.47654611,.0003727,97.5219,357.9366,77.2373,282.9293,0,U,55975,999,18322,.30508E-3,.15672E-3,0
TIANMU-1 06,2023-039D,2026-07-02T18:01:26.671296,15.48242987,.0003956,97.5225,358.5947,72.1858,287.9823,0,U,55976,999,18325,.30864E-3,.16186E-3,0
FENGYUN 3G,2023-055A,2026-07-02T19:21:18.023040,15.53321812,.0007319,49.9922,265.5037,1.7685,358.3307,0,U,56232,999,18243,.36147E-3,.22887E-3,0
METEOR-M2 3,2023-091A,2026-07-02T18:24:25.089984,14.24048058,.0005013,98.6080,238.4260,118.1282,242.0404,0,U,57166,999,15673,.1738E-4,-.3E-7,0
TIANMU-1 07,2023-101A,2026-07-02T17:34:27.941376,15.29989683,.0004264,97.2580,234.0445,90.1206,270.0524,0,U,57399,999,16402,.24566E-3,.7059E-4,0
TIANMU-1 08,2023-101B,2026-07-02T18:20:32.857152,15.29994382,.0005488,97.2569,233.8442,77.8957,282.2899,0,U,57400,999,16402,.24567E-3,.7062E-4,0
TIANMU-1 09,2023-101C,2026-07-02T17:56:10.627008,15.30030861,.0004889,97.2526,233.2354,92.5056,267.6745,0,U,57401,999,16402,.25359E-3,.73E-4,0
TIANMU-1 10,2023-101D,2026-07-02T18:44:10.355424,15.30003640,.0006341,97.2606,234.3344,86.4825,273.7141,0,U,57402,999,16402,.24037E-3,.6911E-4,0
FENGYUN 3F,2023-111A,2026-07-02T18:12:08.306208,14.19941741,.0001482,98.6831,253.4767,82.6304,277.5041,0,U,57490,999,15107,.48024E-4,.59E-6,0
ARKTIKA-M 2,2023-198A,2026-06-29T17:20:14.637696,2.00610643,.69058771,63.2199,152.9641,267.3845,18.7575,0,U,58584,999,1857,0,.148E-5,0
TIANMU-1 11,2023-205A,2026-07-02T18:43:10.982208,15.27155963,.0007206,97.3438,205.0930,317.6556,42.4126,0,U,58645,999,13990,.23156E-3,.6096E-4,0
TIANMU-1 12,2023-205B,2026-07-02T10:09:37.320768,15.27051163,.0005309,97.3426,204.4940,296.9950,63.0746,0,U,58646,999,13983,.25584E-3,.672E-4,0
TIANMU-1 13,2023-205C,2026-07-02T18:49:30.679968,15.26976980,.0004972,97.3454,205.1249,269.2694,90.7975,0,U,58647,999,13988,.23927E-3,.6265E-4,0
TIANMU-1 14,2023-205D,2026-07-02T18:27:33.091200,15.27021255,.0005763,97.3391,204.2794,276.8038,83.2545,0,U,58648,999,13988,.23334E-3,.6117E-4,0
TIANMU-1 19,2023-208A,2026-07-02T18:28:57.160128,15.31810924,.0003639,97.4523,300.1523,251.4329,108.6517,0,U,58660,999,13971,.29023E-3,.8838E-4,0
TIANMU-1 20,2023-208B,2026-07-02T19:05:57.844896,15.33000551,.0005605,97.4465,300.8298,264.6633,95.3969,0,U,58661,999,13981,.28703E-3,.9075E-4,0
