[{"name":"GOES 17","l1":"1 43226U 18022A   26183.63617994 -.00000172  00000+0  00000+0 0  9994","l2":"2 43226   0.9741  85.4682 0000734  41.6240 293.1097  1.00271770 30575","cat":"geostationary"},{"name":"FENGYUN 2H","l1":"1 43491U 18050A   26183.82830072 -.00000119  00000+0  00000+0 0  9995","l2":"2 43491   3.0698  78.8967 0001785 121.3939  98.0538  1.00269442 29599","cat":"geostationary"},{"name":"GEO-KOMPSAT-2A","l1":"1 43823U 18100A   26183.76307903 -.00000333  00000+0  00000+0 0  9993","l2":"2 43823   0.0452 170.3409 0002258 284.1162 229.2952  1.00268776 27780","cat":"geostationary"},{"name":"GOES 18","l1":"1 51850U 22021A   26183.69804314  .00000107  00000+0  00000+0 0  9997","l2":"2 51850   0.0153 195.2020 0000551 306.4734 253.3476  1.00271499  6747","cat":"geostationary"},{"name":"METEOSAT-12 (MTG-I1)","l1":"1 54743U 22170C   26183.72509264  .00000004  00000+0  00000+0 0  9992","l2":"2 54743   0.7551  25.3200 0003602  74.6137  81.6181  1.00276285 13138","cat":"geostationary"},{"name":"FENGYUN 3D","l1":"1 43010U 17072A   26183.79274682 -.00000302  00000+0 -12096-3 0  9997","l2":"2 43010  99.0132 158.4976 0002156  37.0736 323.0588 14.19740968447209","cat":"science"},{"name":"NOAA 20 (JPSS-1)","l1":"1 43013U 17073A   26183.79026882  .00000076  00000+0  56951-4 0  9993","l2":"2 43013  98.7772 123.1143 0000882 132.4848 227.6402 14.19514585446680","cat":"science"},{"name":"SENTINEL-3B","l1":"1 43437U 18039A   26183.47802154  .00000140  00000+0  76068-4 0  9998","l2":"2 43437  98.6244 250.7906 0000853 115.3560 244.7708 14.26739163426301","cat":"science"},{"name":"METOP-C","l1":"1 43689U 18087A   26183.69402882  .00000136  00000+0  81975-4 0  9996","l2":"2 43689  98.6637 243.0137 0002154 109.6309 250.5101 14.21516385397033","cat":"science"},{"name":"METEOR-M2 2","l1":"1 44387U 19038A   26183.76905166 -.00000211  00000+0 -71223-4 0  9991","l2":"2 44387  98.9148 171.2847 0001409  25.7364 334.3884 14.24369221363513","cat":"science"},{"name":"ARKTIKA-M 1","l1":"1 47719U 21016A   26180.95192977 -.00000281  00000+0  00000+0 0  9994","l2":"2 47719  63.2520  55.7907 7292817 269.9910  14.5481  2.00617895 39040","cat":"other"},{"name":"FENGYUN 3E","l1":"1 49008U 21062A   26183.77488187  .00000123  00000+0  78678-4 0  9997","l2":"2 49008  98.7490 187.0089 0002665  60.9337 299.2106 14.19905723258791","cat":"science"},{"name":"NOAA 21 (JPSS-2)","l1":"1 54234U 22150A   26183.75228161  .00000060  00000+0  49275-4 0  9996","l2":"2 54234  98.7060 122.2799 0002463 126.6308 233.5095 14.19539311188756","cat":"science"},{"name":"TIANMU-1 03","l1":"1 55973U 23039A   26183.76324891  .00016267  00000+0  31575-3 0  9991","l2":"2 55973  97.5236 358.3466 0003621  59.5335 300.6272 15.47729369183241","cat":"science"},{"name":"TIANMU-1 04","l1":"1 55974U 23039B   26183.74663846  .00016126  00000+0  30643-3 0  9995","l2":"2 55974  97.5174 357.4844 0004051  53.8233 306.3392 15.48343454183250","cat":"science"},{"name":"TIANMU-1 05","l1":"1 55975U 23039C   26183.74477100  .00015672  00000+0  30508-3 0  9997","l2":"2 55975  97.5219 357.9366 0003727  77.2373 282.9293 15.47654611183224","cat":"science"},{"name":"TIANMU-1 06","l1":"1 55976U 23039D   26183.75100314  .00016186  00000+0  30864-3 0  9995","l2":"2 55976  97.5225 358.5947 0003956  72.1858 287.9823 15.48242987183257","cat":"science"},{"name":"FENGYUN 3G","l1":"1 56232U 23055A   26183.80645860  .00022887  00000+0  36147-3 0  9990","l2":"2 56232  49.9922 265.5037 0007319   1.7685 358.3307 15.53321812182438","cat":"science"},{"name":"METEOR-M2 3","l1":"1 57166U 23091A   26183.76695706 -.00000003  00000+0  17380-4 0  9992","l2":"2 57166  98.6080 238.4260 0005013 118.1282 242.0404 14.24048058156739","cat":"science"},{"name":"TIANMU-1 07","l1":"1 57399U 23101A   26183.73226784  .00007059  00000+0  24566-3 0  9995","l2":"2 57399  97.2580 234.0445 0004264  90.1206 270.0524 15.29989683164025","cat":"science"},{"name":"TIANMU-1 08","l1":"1 57400U 23101B   26183.76426918  .00007062  00000+0  24567-3 0  9997","l2":"2 57400  97.2569 233.8442 0005488  77.8957 282.2899 15.29994382164025","cat":"science"},{"name":"TIANMU-1 09","l1":"1 57401U 23101C   26183.74734522  .00007300  00000+0  25359-3 0  9994","l2":"2 57401  97.2526 233.2354 0004889  92.5056 267.6745 15.30030861164025","cat":"science"},{"name":"TIANMU-1 10","l1":"1 57402U 23101D   26183.78067541  .00006911  00000+0  24037-3 0  9998","l2":"2 57402  97.2606 234.3344 0006341  86.4825 273.7141 15.30003640164020","cat":"science"},{"name":"FENGYUN 3F","l1":"1 57490U 23111A   26183.75842947  .00000059  00000+0  48024-4 0  9994","l2":"2 57490  98.6831 253.4767 0001482  82.6304 277.5041 14.19941741151075","cat":"science"},{"name":"ARKTIKA-M 2","l1":"1 58584U 23198A   26180.72239164  .00000148  00000+0  00000+0 0  9995","l2":"2 58584  63.2199 152.9641 6905877 267.3845  18.7575  2.00610643 18573","cat":"other"},{"name":"TIANMU-1 11","l1":"1 58645U 23205A   26183.77998822  .00006096  00000+0  23156-3 0  9992","l2":"2 58645  97.3438 205.0930 0007206 317.6556  42.4126 15.27155963139906","cat":"science"},{"name":"TIANMU-1 12","l1":"1 58646U 23205B   26183.42334862  .00006720  00000+0  25584-3 0  9994","l2":"2 58646  97.3426 204.4940 0005309 296.9950  63.0746 15.27051163139833","cat":"science"},{"name":"TIANMU-1 13","l1":"1 58647U 23205C   26183.78438287  .00006265  00000+0  23927-3 0  9993","l2":"2 58647  97.3454 205.1249 0004972 269.2694  90.7975 15.26976980139886","cat":"science"},{"name":"TIANMU-1 14","l1":"1 58648U 23205D   26183.76913300  .00006117  00000+0  23334-3 0  9994","l2":"2 58648  97.3391 204.2794 0005763 276.8038  83.2545 15.27021255139884","cat":"science"},{"name":"TIANMU-1 19","l1":"1 58660U 23208A   26183.77010602  .00008838  00000+0  29023-3 0  9998","l2":"2 58660  97.4523 300.1523 0003639 251.4329 108.6517 15.31810924139711","cat":"science"},{"name":"TIANMU-1 20","l1":"1 58661U 23208B   26183.79580839  .00009075  00000+0  28703-3 0  9993","l2":"2 58661  97.4465 300.8298 0005605 264.6633  95.3969 15.33000551139815","cat":"science"}]